TEVEL2-1                
1 63217U 25052H   26068.64782323  .00020683  00000+0  70600-3 0  9994
2 63217  97.3991 324.7682 0004767 104.8919 255.2849 15.30341923 54855
STARLINK-33768          
1 63454U 25069X   26068.48132380  .00037166  00000+0  12609-2 0  9997
2 63454  53.1580 143.3729 0001089  46.5569 313.5523 15.30194017 53379
