[{"OBJECT_NAME":"TEVEL2-1","OBJECT_ID":"2025-052H","EPOCH":"2026-03-09T15:32:51.927072","MEAN_MOTION":15.30341923,"ECCENTRICITY":0.0004767,"INCLINATION":97.3991,"RA_OF_ASC_NODE":324.7682,"ARG_OF_PERICENTER":104.8919,"MEAN_ANOMALY":255.2849,"EPHEMERIS_TYPE":0,"CLASSIFICATION_TYPE":"U","NORAD_CAT_ID":63217,"ELEMENT_SET_NO":999,"REV_AT_EPOCH":5485,"BSTAR":0.000706,"MEAN_MOTION_DOT":0.00020683,"MEAN_MOTION_DDOT":0},{"OBJECT_NAME":"STARLINK-33768","OBJECT_ID":"2025-069X","EPOCH":"2026-03-09T11:33:06.376320","MEAN_MOTION":15.30194017,"ECCENTRICITY":0.00010893,"INCLINATION":53.158,"RA_OF_ASC_NODE":143.3729,"ARG_OF_PERICENTER":46.5569,"MEAN_ANOMALY":313.5523,"EPHEMERIS_TYPE":0,"CLASSIFICATION_TYPE":"U","NORAD_CAT_ID":63454,"ELEMENT_SET_NO":999,"REV_AT_EPOCH":5337,"BSTAR":0.0012609334,"MEAN_MOTION_DOT":0.00037166,"MEAN_MOTION_DDOT":0}]
